[{"OBJECT_NAME":"SAOCOM 1A","OBJECT_ID":"2018-076A","EPOCH":"2026-03-09T23:06:42.673824","MEAN_MOTION":14.82173643,"ECCENTRICITY":0.00013387,"INCLINATION":97.8895,"RA_OF_ASC_NODE":257.1316,"ARG_OF_PERICENTER":83.6952,"MEAN_ANOMALY":276.4413,"EPHEMERIS_TYPE":0,"CLASSIFICATION_TYPE":"U","NORAD_CAT_ID":43641,"ELEMENT_SET_NO":999,"REV_AT_EPOCH":40140,"BSTAR":0.0001704308,"MEAN_MOTION_DOT":1.305e-5,"MEAN_MOTION_DDOT":0},{"OBJECT_NAME":"CZ-6A DEB","OBJECT_ID":"2022-151YH","EPOCH":"2026-03-09T17:12:17.131680","MEAN_MOTION":14.7104784,"ECCENTRICITY":0.007557,"INCLINATION":98.6348,"RA_OF_ASC_NODE":132.1846,"ARG_OF_PERICENTER":223.9738,"MEAN_ANOMALY":135.5439,"EPHEMERIS_TYPE":0,"CLASSIFICATION_TYPE":"U","NORAD_CAT_ID":55535,"ELEMENT_SET_NO":999,"REV_AT_EPOCH":17055,"BSTAR":0.0024721517,"MEAN_MOTION_DOT":0.00015846,"MEAN_MOTION_DDOT":0}]
